start=new Date('2022-01-04T00:00:00.000Z').valueOf();
sats=[{"OBJECT_ID":"2020-062AX","TLE_LINE2":"2 46370  53.0564   8.7557 0001557  57.1777 302.9362 15.06400608 74533","ECCENTRICITY":"0.00015570","BSTAR":"0.00016274000000","FILE":"3255250","RCS_SIZE":"LARGE","EPHEMERIS_TYPE":"0","PERIAPSIS":"546.133","MEAN_MOTION_DDOT":"0.0000000000000","MEAN_ANOMALY":"302.9362","ELEMENT_SET_NO":"999","CLASSIFICATION_TYPE":"U","GP_ID":"192969247","MEAN_MOTION_DOT":"0.00002143","ARG_OF_PERICENTER":"57.1777","INCLINATION":"53.0564","SITE":"AFETR","REV_AT_EPOCH":"7453","OBJECT_TYPE":"PAYLOAD","SEMIMAJOR_AXIS":"6925.347","PERIOD":"95.592","MEAN_ELEMENT_THEORY":"SGP4","EPOCH":"2022-01-03T07:45:40.771584","RA_OF_ASC_NODE":"8.7557","TLE_LINE1":"1 46370U 20062AX  22003.32338856  .00002143  00000-0  16274-3 0  9998","REF_FRAME":"TEME","CENTER_NAME":"EARTH","OBJECT_NAME":"STARLINK-1670","TIME_SYSTEM":"UTC","APOAPSIS":"548.290","NORAD_CAT_ID":"46370","MEAN_MOTION":"15.06400608","DECAY_DATE":null,"LAUNCH_DATE":"2020-09-03","COUNTRY_CODE":"US"},{"MEAN_ANOMALY":"283.8237","ELEMENT_SET_NO":"999","MEAN_MOTION_DDOT":"0.0000000000000","ARG_OF_PERICENTER":"76.2904","REV_AT_EPOCH":"7454","SITE":"AFETR","INCLINATION":"53.0544","CLASSIFICATION_TYPE":"U","GP_ID":"192968993","MEAN_MOTION_DOT":"0.00000775","FILE":"3255250","PERIAPSIS":"546.298","RCS_SIZE":"LARGE","EPHEMERIS_TYPE":"0","BSTAR":"0.00007093700000","ECCENTRICITY":"0.00013630","OBJECT_ID":"2020-062AY","TLE_LINE2":"2 46371  53.0544   8.4801 0001363  76.2904 283.8237 15.06390581 74547","LAUNCH_DATE":"2020-09-03","DECAY_DATE":null,"COUNTRY_CODE":"US","TIME_SYSTEM":"UTC","OBJECT_NAME":"STARLINK-1688","NORAD_CAT_ID":"46371","APOAPSIS":"548.186","MEAN_MOTION":"15.06390581","RA_OF_ASC_NODE":"8.4801","TLE_LINE1":"1 46371U 20062AY  22003.38237412  .00000775  00000-0  70937-4 0  9997","CENTER_NAME":"EARTH","REF_FRAME":"TEME","SEMIMAJOR_AXIS":"6925.377","OBJECT_TYPE":"PAYLOAD","MEAN_ELEMENT_THEORY":"SGP4","EPOCH":"2022-01-03T09:10:37.123968","PERIOD":"95.593"},{"TLE_LINE1":"1 46372U 20062AZ  22003.32523705  .00000096  00000-0  25366-4 0  9997","RA_OF_ASC_NODE":"28.7310","CENTER_NAME":"EARTH","REF_FRAME":"TEME","SEMIMAJOR_AXIS":"6925.360","OBJECT_TYPE":"PAYLOAD","EPOCH":"2022-01-03T07:48:20.481120","MEAN_ELEMENT_THEORY":"SGP4","PERIOD":"95.592","LAUNCH_DATE":"2020-09-03","DECAY_DATE":null,"COUNTRY_CODE":"US","OBJECT_NAME":"STARLINK-1689","TIME_SYSTEM":"UTC","MEAN_MOTION":"15.06396386","NORAD_CAT_ID":"46372","APOAPSIS":"548.207","BSTAR":"0.00002536600000","ECCENTRICITY":"0.00014180","TLE_LINE2":"2 46372  53.0549  28.7310 0001418  78.5234 281.5915 15.06396386 74250","OBJECT_ID":"2020-062AZ","ELEMENT_SET_NO":"999","MEAN_ANOMALY":"281.5915","MEAN_MOTION_DDOT":"0.0000000000000","REV_AT_EPOCH":"7425","SITE":"AFETR","INCLINATION":"53.0549","ARG_OF_PERICENTER":"78.5234","MEAN_MOTION_DOT":"0.00000096","GP_ID":"192968246","CLASSIFICATION_TYPE":"U","FILE":"3255250","PERIAPSIS":"546.243","EPHEMERIS_TYPE":"0","RCS_SIZE":"LARGE"},{"BSTAR":"0.00015551000000","ECCENTRICITY":"0.00027230","OBJECT_ID":"2020-062BB","TLE_LINE2":"2 46374  53.0549 318.6789 0002723 162.4672 197.6412 15.06401713 75231","MEAN_ANOMALY":"197.6412","ELEMENT_SET_NO":"999","MEAN_MOTION_DDOT":"0.0000000000000","ARG_OF_PERICENTER":"162.4672","SITE":"AFETR","INCLINATION":"53.0549","REV_AT_EPOCH":"7523","GP_ID":"192968496","CLASSIFICATION_TYPE":"U","MEAN_MOTION_DOT":"0.00002035","FILE":"3255250","PERIAPSIS":"545.323","EPHEMERIS_TYPE":"0","RCS_SIZE":"LARGE","RA_OF_ASC_NODE":"318.6789","TLE_LINE1":"1 46374U 20062BB  22003.33905698  .00002035  00000-0  15551-3 0  9994","CENTER_NAME":"EARTH","REF_FRAME":"TEME","SEMIMAJOR_AXIS":"6925.343","OBJECT_TYPE":"PAYLOAD","MEAN_ELEMENT_THEORY":"SGP4","EPOCH":"2022-01-03T08:08:14.523072","PERIOD":"95.592","LAUNCH_DATE":"2020-09-03","DECAY_DATE":null,"COUNTRY_CODE":"US","TIME_SYSTEM":"UTC","OBJECT_NAME":"STARLINK-1711","APOAPSIS":"549.094","NORAD_CAT_ID":"46374","MEAN_MOTION":"15.06401713"},{"SEMIMAJOR_AXIS":"6925.352","OBJECT_TYPE":"PAYLOAD","MEAN_ELEMENT_THEORY":"SGP4","EPOCH":"2022-01-03T10:04:21.023328","PERIOD":"95.592","RA_OF_ASC_NODE":"343.3074","TLE_LINE1":"1 46375U 20062BC  22003.41968777  .00001300  00000-0  10616-3 0  9992","CENTER_NAME":"EARTH","REF_FRAME":"TEME","OBJECT_NAME":"STARLINK-1724","TIME_SYSTEM":"UTC","APOAPSIS":"548.427","NORAD_CAT_ID":"46375","MEAN_MOTION":"15.06398936","LAUNCH_DATE":"2020-09-03","DECAY_DATE":null,"COUNTRY_CODE":"US","OBJECT_ID":"2020-062BC","TLE_LINE2":"2 46375  53.0542 343.3074 0001748  56.7409 303.3747 15.06398936 74896","BSTAR":"0.00010616000000","ECCENTRICITY":"0.00017480","FILE":"3255250","PERIAPSIS":"546.006","EPHEMERIS_TYPE":"0","RCS_SIZE":"LARGE","MEAN_ANOMALY":"303.3747","ELEMENT_SET_NO":"999","MEAN_MOTION_DDOT":"0.0000000000000","ARG_OF_PERICENTER":"56.7409","SITE":"AFETR","REV_AT_EPOCH":"7489","INCLINATION":"53.0542","GP_ID":"192968747","MEAN_MOTION_DOT":"0.00001300","CLASSIFICATION_TYPE":"U"},{"RCS_SIZE":"LARGE","EPHEMERIS_TYPE":"0","PERIAPSIS":"545.942","FILE":"3255250","MEAN_MOTION_DOT":"0.00002597","GP_ID":"192969494","CLASSIFICATION_TYPE":"U","SITE":"AFETR","REV_AT_EPOCH":"7484","INCLINATION":"53.0546","ARG_OF_PERICENTER":"59.2049","MEAN_MOTION_DDOT":"0.0000000000000","ELEMENT_SET_NO":"999","MEAN_ANOMALY":"300.9121","TLE_LINE2":"2 46376  53.0546 344.7327 0001840  59.2049 300.9121 15.06399095 74849","OBJECT_ID":"2020-062BD","ECCENTRICITY":"0.00018400","BSTAR":"0.00019318000000","MEAN_MOTION":"15.06399095","NORAD_CAT_ID":"46376","APOAPSIS":"548.491","TIME_SYSTEM":"UTC","OBJECT_NAME":"STARLINK-1742","COUNTRY_CODE":"US","DECAY_DATE":null,"LAUNCH_DATE":"2020-09-03","PERIOD":"95.592","EPOCH":"2022-01-03T02:27:52.741728","MEAN_ELEMENT_THEORY":"SGP4","OBJECT_TYPE":"PAYLOAD","SEMIMAJOR_AXIS":"6925.351","REF_FRAME":"TEME","CENTER_NAME":"EARTH","TLE_LINE1":"1 46376U 20062BD  22003.10269377  .00002597  00000-0  19318-3 0  9996","RA_OF_ASC_NODE":"344.7327"},{"OBJECT_NAME":"STARLINK-1751","TIME_SYSTEM":"UTC","MEAN_MOTION":"15.91060465","APOAPSIS":"300.168","NORAD_CAT_ID":"46378","LAUNCH_DATE":"2020-09-03","DECAY_DATE":null,"COUNTRY_CODE":"US","SEMIMAJOR_AXIS":"6677.451","OBJECT_TYPE":"PAYLOAD","EPOCH":"2022-01-02T17:04:55.938720","MEAN_ELEMENT_THEORY":"SGP4","PERIOD":"90.506","TLE_LINE1":"1 46378U 20062BF  22002.71175855  .00040573  11735-4  13599-3 0  9993","RA_OF_ASC_NODE":"330.0915","CENTER_NAME":"EARTH","REF_FRAME":"TEME","FILE":"3257851","PERIAPSIS":"298.464","EPHEMERIS_TYPE":"0","RCS_SIZE":"LARGE","ELEMENT_SET_NO":"999","MEAN_ANOMALY":"244.2368","MEAN_MOTION_DDOT":"0.0000117350000","INCLINATION":"53.0535","SITE":"AFETR","REV_AT_EPOCH":"7518","ARG_OF_PERICENTER":"115.8789","MEAN_MOTION_DOT":"0.00040573","GP_ID":"193045429","CLASSIFICATION_TYPE":"U","TLE_LINE2":"2 46378  53.0535 330.0915 0001276 115.8789 244.2368 15.91060465 75184","OBJECT_ID":"2020-062BF","BSTAR":"0.00013599000000","ECCENTRICITY":"0.00012760"},{"DECAY_DATE":null,"LAUNCH_DATE":"2020-09-03","COUNTRY_CODE":"US","OBJECT_NAME":"STARLINK-1758","TIME_SYSTEM":"UTC","APOAPSIS":"548.201","NORAD_CAT_ID":"46380","MEAN_MOTION":"15.06395245","RA_OF_ASC_NODE":"8.0918","TLE_LINE1":"1 46380U 20062BH  22003.46714600  .00000998  00000-0  85872-4 0  9996","REF_FRAME":"TEME","CENTER_NAME":"EARTH","OBJECT_TYPE":"PAYLOAD","SEMIMAJOR_AXIS":"6925.363","PERIOD":"95.592","MEAN_ELEMENT_THEORY":"SGP4","EPOCH":"2022-01-03T11:12:41.414400","MEAN_MOTION_DDOT":"0.0000000000000","MEAN_ANOMALY":"291.4047","ELEMENT_SET_NO":"999","GP_ID":"192967996","MEAN_MOTION_DOT":"0.00000998","CLASSIFICATION_TYPE":"U","ARG_OF_PERICENTER":"68.7092","INCLINATION":"53.0564","SITE":"AFETR","REV_AT_EPOCH":"7455","FILE":"3255250","RCS_SIZE":"LARGE","EPHEMERIS_TYPE":"0","PERIAPSIS":"546.255","ECCENTRICITY":"0.00014050","BSTAR":"0.00008587200000","OBJECT_ID":"2020-062BH","TLE_LINE2":"2 46380  53.0564   8.0918 0001405  68.7092 291.4047 15.06395245 74552"},{"RA_OF_ASC_NODE":"344.3821","TLE_LINE1":"1 46382U 20062BK  22003.18379267  .00000401  00000-0  45809-4 0  9998","REF_FRAME":"TEME","CENTER_NAME":"EARTH","OBJECT_TYPE":"PAYLOAD","SEMIMAJOR_AXIS":"6925.373","PERIOD":"95.593","MEAN_ELEMENT_THEORY":"SGP4","EPOCH":"2022-01-03T04:24:39.686688","DECAY_DATE":null,"LAUNCH_DATE":"2020-09-03","COUNTRY_CODE":"US","TIME_SYSTEM":"UTC","OBJECT_NAME":"STARLINK-1769","APOAPSIS":"548.438","NORAD_CAT_ID":"46382","MEAN_MOTION":"15.06392164","ECCENTRICITY":"0.00017340","BSTAR":"0.00004580900000","OBJECT_ID":"2020-062BK","TLE_LINE2":"2 46382  53.0560 344.3821 0001734  72.2954 287.8224 15.06392164 74868","MEAN_MOTION_DDOT":"0.0000000000000","MEAN_ANOMALY":"287.8224","ELEMENT_SET_NO":"999","MEAN_MOTION_DOT":"0.00000401","GP_ID":"192969248","CLASSIFICATION_TYPE":"U","ARG_OF_PERICENTER":"72.2954","SITE":"AFETR","INCLINATION":"53.0560","REV_AT_EPOCH":"7486","FILE":"3255250","EPHEMERIS_TYPE":"0","RCS_SIZE":"LARGE","PERIAPSIS":"546.037"},{"TLE_LINE1":"1 46383U 20062BL  22003.30312203  .00001815  00000-0  14071-3 0  9996","RA_OF_ASC_NODE":"28.8383","REF_FRAME":"TEME","CENTER_NAME":"EARTH","OBJECT_TYPE":"PAYLOAD","SEMIMAJOR_AXIS":"6925.367","PERIOD":"95.593","EPOCH":"2022-01-03T07:16:29.743392","MEAN_ELEMENT_THEORY":"SGP4","DECAY_DATE":null,"LAUNCH_DATE":"2020-09-03","COUNTRY_CODE":"US","TIME_SYSTEM":"UTC","OBJECT_NAME":"STARLINK-1770","MEAN_MOTION":"15.06394021","APOAPSIS":"548.138","NORAD_CAT_ID":"46383","ECCENTRICITY":"0.00013090","BSTAR":"0.00014071000000","TLE_LINE2":"2 46383  53.0562  28.8383 0001309  77.9358 282.1778 15.06394021 74424","OBJECT_ID":"2020-062BL","MEAN_MOTION_DDOT":"0.0000000000000","ELEMENT_SET_NO":"999","MEAN_ANOMALY":"282.1778","MEAN_MOTION_DOT":"0.00001815","GP_ID":"192974323","CLASSIFICATION_TYPE":"U","SITE":"AFETR","INCLINATION":"53.0562","REV_AT_EPOCH":"7442","ARG_OF_PERICENTER":"77.9358","FILE":"3255343","EPHEMERIS_TYPE":"0","RCS_SIZE":"LARGE","PERIAPSIS":"546.325"}];
